<?xml version="1.0" encoding="UTF-8"?>
<ndm xmlns:xsi="http://www.w3.org/2001/XMLSchema-instance" xsi:noNamespaceSchemaLocation="https://sanaregistry.org/r/ndmxml_unqualified/ndmxml-2.0.0-master-2.0.xsd">
<omm id="CCSDS_OMM_VERS" version="2.0">
<header><CREATION_DATE/><ORIGINATOR/></header><body><segment><metadata><OBJECT_NAME>ORBCOMM FM24 [-]</OBJECT_NAME><OBJECT_ID>1998-053D</OBJECT_ID><CENTER_NAME>EARTH</CENTER_NAME><REF_FRAME>TEME</REF_FRAME><TIME_SYSTEM>UTC</TIME_SYSTEM><MEAN_ELEMENT_THEORY>SGP4</MEAN_ELEMENT_THEORY></metadata><data><meanElements><EPOCH>2024-03-25T18:14:32.989920</EPOCH><MEAN_MOTION>14.35421599</MEAN_MOTION><ECCENTRICITY>.0002037</ECCENTRICITY><INCLINATION>45.0066</INCLINATION><RA_OF_ASC_NODE>230.8175</RA_OF_ASC_NODE><ARG_OF_PERICENTER>173.5623</ARG_OF_PERICENTER><MEAN_ANOMALY>186.5251</MEAN_ANOMALY></meanElements><tleParameters><EPHEMERIS_TYPE>0</EPHEMERIS_TYPE><CLASSIFICATION_TYPE>U</CLASSIFICATION_TYPE><NORAD_CAT_ID>25478</NORAD_CAT_ID><ELEMENT_SET_NO>999</ELEMENT_SET_NO><REV_AT_EPOCH>33295</REV_AT_EPOCH><BSTAR>.20301E-2</BSTAR><MEAN_MOTION_DOT>.5747E-4</MEAN_MOTION_DOT><MEAN_MOTION_DDOT>0</MEAN_MOTION_DDOT></tleParameters></data></segment></body></omm>
<omm id="CCSDS_OMM_VERS" version="2.0">
<header><CREATION_DATE/><ORIGINATOR/></header><body><segment><metadata><OBJECT_NAME>ORBCOMM FM25 [-]</OBJECT_NAME><OBJECT_ID>1998-053E</OBJECT_ID><CENTER_NAME>EARTH</CENTER_NAME><REF_FRAME>TEME</REF_FRAME><TIME_SYSTEM>UTC</TIME_SYSTEM><MEAN_ELEMENT_THEORY>SGP4</MEAN_ELEMENT_THEORY></metadata><data><meanElements><EPOCH>2024-03-25T15:44:54.357216</EPOCH><MEAN_MOTION>14.35405928</MEAN_MOTION><ECCENTRICITY>.0004752</ECCENTRICITY><INCLINATION>45.0050</INCLINATION><RA_OF_ASC_NODE>229.5486</RA_OF_ASC_NODE><ARG_OF_PERICENTER>170.5852</ARG_OF_PERICENTER><MEAN_ANOMALY>189.5085</MEAN_ANOMALY></meanElements><tleParameters><EPHEMERIS_TYPE>0</EPHEMERIS_TYPE><CLASSIFICATION_TYPE>U</CLASSIFICATION_TYPE><NORAD_CAT_ID>25479</NORAD_CAT_ID><ELEMENT_SET_NO>999</ELEMENT_SET_NO><REV_AT_EPOCH>33323</REV_AT_EPOCH><BSTAR>.21197E-2</BSTAR><MEAN_MOTION_DOT>.6006E-4</MEAN_MOTION_DOT><MEAN_MOTION_DDOT>0</MEAN_MOTION_DDOT></tleParameters></data></segment></body></omm>
<omm id="CCSDS_OMM_VERS" version="2.0">
<header><CREATION_DATE/><ORIGINATOR/></header><body><segment><metadata><OBJECT_NAME>ORBCOMM FM26 [-]</OBJECT_NAME><OBJECT_ID>1998-053F</OBJECT_ID><CENTER_NAME>EARTH</CENTER_NAME><REF_FRAME>TEME</REF_FRAME><TIME_SYSTEM>UTC</TIME_SYSTEM><MEAN_ELEMENT_THEORY>SGP4</MEAN_ELEMENT_THEORY></metadata><data><meanElements><EPOCH>2024-03-25T15:29:29.483232</EPOCH><MEAN_MOTION>14.34881670</MEAN_MOTION><ECCENTRICITY>.0006906</ECCENTRICITY><INCLINATION>45.0052</INCLINATION><RA_OF_ASC_NODE>223.5302</RA_OF_ASC_NODE><ARG_OF_PERICENTER>186.7166</ARG_OF_PERICENTER><MEAN_ANOMALY>173.3589</MEAN_ANOMALY></meanElements><tleParameters><EPHEMERIS_TYPE>0</EPHEMERIS_TYPE><CLASSIFICATION_TYPE>U</CLASSIFICATION_TYPE><NORAD_CAT_ID>25480</NORAD_CAT_ID><ELEMENT_SET_NO>999</ELEMENT_SET_NO><REV_AT_EPOCH>33317</REV_AT_EPOCH><BSTAR>.17214E-2</BSTAR><MEAN_MOTION_DOT>.4799E-4</MEAN_MOTION_DOT><MEAN_MOTION_DDOT>0</MEAN_MOTION_DDOT></tleParameters></data></segment></body></omm>
<omm id="CCSDS_OMM_VERS" version="2.0">
<header><CREATION_DATE/><ORIGINATOR/></header><body><segment><metadata><OBJECT_NAME>ORBCOMM FM27 [+]</OBJECT_NAME><OBJECT_ID>1998-053G</OBJECT_ID><CENTER_NAME>EARTH</CENTER_NAME><REF_FRAME>TEME</REF_FRAME><TIME_SYSTEM>UTC</TIME_SYSTEM><MEAN_ELEMENT_THEORY>SGP4</MEAN_ELEMENT_THEORY></metadata><data><meanElements><EPOCH>2024-03-25T17:07:12.163872</EPOCH><MEAN_MOTION>14.35385376</MEAN_MOTION><ECCENTRICITY>.0001202</ECCENTRICITY><INCLINATION>45.0041</INCLINATION><RA_OF_ASC_NODE>229.5435</RA_OF_ASC_NODE><ARG_OF_PERICENTER>221.1073</ARG_OF_PERICENTER><MEAN_ANOMALY>138.9683</MEAN_ANOMALY></meanElements><tleParameters><EPHEMERIS_TYPE>0</EPHEMERIS_TYPE><CLASSIFICATION_TYPE>U</CLASSIFICATION_TYPE><NORAD_CAT_ID>25481</NORAD_CAT_ID><ELEMENT_SET_NO>999</ELEMENT_SET_NO><REV_AT_EPOCH>33317</REV_AT_EPOCH><BSTAR>.21486E-2</BSTAR><MEAN_MOTION_DOT>.6086E-4</MEAN_MOTION_DOT><MEAN_MOTION_DDOT>0</MEAN_MOTION_DDOT></tleParameters></data></segment></body></omm>
<omm id="CCSDS_OMM_VERS" version="2.0">
<header><CREATION_DATE/><ORIGINATOR/></header><body><segment><metadata><OBJECT_NAME>ORBCOMM FM28 [-]</OBJECT_NAME><OBJECT_ID>1998-053H</OBJECT_ID><CENTER_NAME>EARTH</CENTER_NAME><REF_FRAME>TEME</REF_FRAME><TIME_SYSTEM>UTC</TIME_SYSTEM><MEAN_ELEMENT_THEORY>SGP4</MEAN_ELEMENT_THEORY></metadata><data><meanElements><EPOCH>2024-03-26T04:49:29.223552</EPOCH><MEAN_MOTION>14.35836969</MEAN_MOTION><ECCENTRICITY>.0005663</ECCENTRICITY><INCLINATION>45.0046</INCLINATION><RA_OF_ASC_NODE>165.8627</RA_OF_ASC_NODE><ARG_OF_PERICENTER>223.7210</ARG_OF_PERICENTER><MEAN_ANOMALY>136.3189</MEAN_ANOMALY></meanElements><tleParameters><EPHEMERIS_TYPE>0</EPHEMERIS_TYPE><CLASSIFICATION_TYPE>U</CLASSIFICATION_TYPE><NORAD_CAT_ID>25482</NORAD_CAT_ID><ELEMENT_SET_NO>999</ELEMENT_SET_NO><REV_AT_EPOCH>33408</REV_AT_EPOCH><BSTAR>.15168E-2</BSTAR><MEAN_MOTION_DOT>.4295E-4</MEAN_MOTION_DOT><MEAN_MOTION_DDOT>0</MEAN_MOTION_DDOT></tleParameters></data></segment></body></omm>
<omm id="CCSDS_OMM_VERS" version="2.0">
<header><CREATION_DATE/><ORIGINATOR/></header><body><segment><metadata><OBJECT_NAME>ORBCOMM FM30 [-]</OBJECT_NAME><OBJECT_ID>1999-065A</OBJECT_ID><CENTER_NAME>EARTH</CENTER_NAME><REF_FRAME>TEME</REF_FRAME><TIME_SYSTEM>UTC</TIME_SYSTEM><MEAN_ELEMENT_THEORY>SGP4</MEAN_ELEMENT_THEORY></metadata><data><meanElements><EPOCH>2024-03-25T14:41:05.610336</EPOCH><MEAN_MOTION>14.35023561</MEAN_MOTION><ECCENTRICITY>.0007631</ECCENTRICITY><INCLINATION>45.0322</INCLINATION><RA_OF_ASC_NODE>49.1721</RA_OF_ASC_NODE><ARG_OF_PERICENTER>288.2335</ARG_OF_PERICENTER><MEAN_ANOMALY>71.7682</MEAN_ANOMALY></meanElements><tleParameters><EPHEMERIS_TYPE>0</EPHEMERIS_TYPE><CLASSIFICATION_TYPE>U</CLASSIFICATION_TYPE><NORAD_CAT_ID>25980</NORAD_CAT_ID><ELEMENT_SET_NO>999</ELEMENT_SET_NO><REV_AT_EPOCH>26996</REV_AT_EPOCH><BSTAR>.17454E-2</BSTAR><MEAN_MOTION_DOT>.4882E-4</MEAN_MOTION_DOT><MEAN_MOTION_DDOT>0</MEAN_MOTION_DDOT></tleParameters></data></segment></body></omm>
<omm id="CCSDS_OMM_VERS" version="2.0">
<header><CREATION_DATE/><ORIGINATOR/></header><body><segment><metadata><OBJECT_NAME>ORBCOMM FM31 [-]</OBJECT_NAME><OBJECT_ID>1999-065B</OBJECT_ID><CENTER_NAME>EARTH</CENTER_NAME><REF_FRAME>TEME</REF_FRAME><TIME_SYSTEM>UTC</TIME_SYSTEM><MEAN_ELEMENT_THEORY>SGP4</MEAN_ELEMENT_THEORY></metadata><data><meanElements><EPOCH>2024-03-25T13:51:39.626208</EPOCH><MEAN_MOTION>14.35031779</MEAN_MOTION><ECCENTRICITY>.0004913</ECCENTRICITY><INCLINATION>45.0236</INCLINATION><RA_OF_ASC_NODE>43.0598</RA_OF_ASC_NODE><ARG_OF_PERICENTER>308.4465</ARG_OF_PERICENTER><MEAN_ANOMALY>51.5941</MEAN_ANOMALY></meanElements><tleParameters><EPHEMERIS_TYPE>0</EPHEMERIS_TYPE><CLASSIFICATION_TYPE>U</CLASSIFICATION_TYPE><NORAD_CAT_ID>25981</NORAD_CAT_ID><ELEMENT_SET_NO>999</ELEMENT_SET_NO><REV_AT_EPOCH>26951</REV_AT_EPOCH><BSTAR>.16814E-2</BSTAR><MEAN_MOTION_DOT>.4697E-4</MEAN_MOTION_DOT><MEAN_MOTION_DDOT>0</MEAN_MOTION_DDOT></tleParameters></data></segment></body></omm>
<omm id="CCSDS_OMM_VERS" version="2.0">
<header><CREATION_DATE/><ORIGINATOR/></header><body><segment><metadata><OBJECT_NAME>ORBCOMM FM32 [+]</OBJECT_NAME><OBJECT_ID>1999-065C</OBJECT_ID><CENTER_NAME>EARTH</CENTER_NAME><REF_FRAME>TEME</REF_FRAME><TIME_SYSTEM>UTC</TIME_SYSTEM><MEAN_ELEMENT_THEORY>SGP4</MEAN_ELEMENT_THEORY></metadata><data><meanElements><EPOCH>2024-03-25T14:17:52.426752</EPOCH><MEAN_MOTION>14.34001040</MEAN_MOTION><ECCENTRICITY>.0007438</ECCENTRICITY><INCLINATION>45.0162</INCLINATION><RA_OF_ASC_NODE>56.4460</RA_OF_ASC_NODE><ARG_OF_PERICENTER>308.0117</ARG_OF_PERICENTER><MEAN_ANOMALY>52.0058</MEAN_ANOMALY></meanElements><tleParameters><EPHEMERIS_TYPE>0</EPHEMERIS_TYPE><CLASSIFICATION_TYPE>U</CLASSIFICATION_TYPE><NORAD_CAT_ID>25982</NORAD_CAT_ID><ELEMENT_SET_NO>999</ELEMENT_SET_NO><REV_AT_EPOCH>27015</REV_AT_EPOCH><BSTAR>.18341E-2</BSTAR><MEAN_MOTION_DOT>.5031E-4</MEAN_MOTION_DOT><MEAN_MOTION_DDOT>0</MEAN_MOTION_DDOT></tleParameters></data></segment></body></omm>

</ndm>
