ORBCOMM FM24 [-]        
1 25478U 98053D   24085.76010405  .00005747  00000+0  20301-2 0  9993
2 25478  45.0066 230.8175 0002037 173.5623 186.5251 14.35421599332957
ORBCOMM FM25 [-]        
1 25479U 98053E   24085.65618469  .00006006  00000+0  21197-2 0  9999
2 25479  45.0050 229.5486 0004752 170.5852 189.5085 14.35405928333236
ORBCOMM FM26 [-]        
1 25480U 98053F   24085.64548013  .00004799  00000+0  17214-2 0  9999
2 25480  45.0052 223.5302 0006906 186.7166 173.3589 14.34881670333175
ORBCOMM FM27 [+]        
1 25481U 98053G   24085.71333523  .00006086  00000+0  21486-2 0  9993
2 25481  45.0041 229.5435 0001202 221.1073 138.9683 14.35385376333177
ORBCOMM FM28 [-]        
1 25482U 98053H   24086.20103268  .00004295  00000+0  15168-2 0  9990
2 25482  45.0046 165.8627 0005663 223.7210 136.3189 14.35836969334087
ORBCOMM FM30 [-]        
1 25980U 99065A   24085.61187049  .00004882  00000+0  17454-2 0  9992
2 25980  45.0322  49.1721 0007631 288.2335  71.7682 14.35023561269967
ORBCOMM FM31 [-]        
1 25981U 99065B   24085.57754197  .00004697  00000+0  16814-2 0  9995
2 25981  45.0236  43.0598 0004913 308.4465  51.5941 14.35031779269511
ORBCOMM FM32 [+]        
1 25982U 99065C   24085.59574568  .00005031  00000+0  18341-2 0  9990
2 25982  45.0162  56.4460 0007438 308.0117  52.0058 14.34001040270155
